STARLINK-37046
1 68102U 26044B   26092.83335647 -.01873539  00000+0 -34136-1 0  9996
2 68102  97.2853  54.0684 0001494  76.6674 316.1589 15.52915503  5288
